[
    {
        "Altitude(m)": 624790.7692070086,
        "Argument of Periapsis(deg)": 0.0,
        "Eccentricity": 0.0,
        "Inclination(deg)": 60.0,
        "Latitude(deg)": -59.147037207371724,
        "Longitude(deg)": 101.03460521123348,
        "Mean Anomaly(deg)": -81.8182,
        "RAAN(deg)": 275.0,
        "Satellite Name": "Test1 1227",
        "Satellite Number": 1227,
        "Semi-Major Axis(m)": 6980739.136638005,
        "Time(s)": 0
    },
    {
        "Altitude(m)": 624737.4242107543,
        "Argument of Periapsis(deg)": 0.00010418945913296404,
        "Eccentricity": 0.0,
        "Inclination(deg)": 60.0,
        "Latitude(deg)": -58.99449237280407,
        "Longitude(deg)": 102.15410471136428,
        "Mean Anomaly(deg)": -81.19809385453816,
        "RAAN(deg)": 274.9995799508602,
        "Satellite Name": "Test1 1227",
        "Satellite Number": 1227,
        "Semi-Major Axis(m)": 6980739.136638005,
        "Time(s)": 10
    }
]